[{"OBJECT_NAME":"YAOGAN-31 03B","OBJECT_ID":"2021-014C","EPOCH":"2026-03-10T00:24:01.951200","MEAN_MOTION":13.45442112,"ECCENTRICITY":0.01685902,"INCLINATION":63.4006,"RA_OF_ASC_NODE":93.5208,"ARG_OF_PERICENTER":0.5266,"MEAN_ANOMALY":359.5908,"EPHEMERIS_TYPE":0,"CLASSIFICATION_TYPE":"U","NORAD_CAT_ID":47693,"ELEMENT_SET_NO":999,"REV_AT_EPOCH":24733,"BSTAR":0.00044455044,"MEAN_MOTION_DOT":1.97e-6,"MEAN_MOTION_DDOT":0},{"OBJECT_NAME":"COSMOS 1275 DEB","OBJECT_ID":"1981-053JD","EPOCH":"2026-03-02T12:10:36.646176","MEAN_MOTION":13.72981652,"ECCENTRICITY":0.01138107,"INCLINATION":82.9573,"RA_OF_ASC_NODE":251.1665,"ARG_OF_PERICENTER":325.8999,"MEAN_ANOMALY":62.2172,"EPHEMERIS_TYPE":0,"CLASSIFICATION_TYPE":"U","NORAD_CAT_ID":14408,"ELEMENT_SET_NO":999,"REV_AT_EPOCH":68882,"BSTAR":0.0011023898,"MEAN_MOTION_DOT":1.079e-5,"MEAN_MOTION_DDOT":0}]
